CCSDS_OMM_VERS = 2.0
CREATION_DATE  = 
ORIGINATOR     = 

OBJECT_NAME    = COSMOS 2058
OBJECT_ID      = 1990-010A
CENTER_NAME    = EARTH
REF_FRAME      = TEME
TIME_SYSTEM    = UTC
MEAN_ELEMENT_THEORY = SGP/SGP4

EPOCH          = 2026-03-17T23:45:58.837248
MEAN_MOTION    = 15.11394633
ECCENTRICITY   = .00082178
INCLINATION    = 82.4670
RA_OF_ASC_NODE = 39.2478
ARG_OF_PERICENTER = 315.6632
MEAN_ANOMALY   = 44.3939

EPHEMERIS_TYPE = 0
CLASSIFICATION_TYPE = U
NORAD_CAT_ID   = 20465
ELEMENT_SET_NO = 999
REV_AT_EPOCH   = 94349
BSTAR          = .18689035E-3
MEAN_MOTION_DOT = .3185E-4
MEAN_MOTION_DDOT = 0

CCSDS_OMM_VERS = 2.0
CREATION_DATE  = 
ORIGINATOR     = 

OBJECT_NAME    = SL-14 R/B
OBJECT_ID      = 1990-010B
CENTER_NAME    = EARTH
REF_FRAME      = TEME
TIME_SYSTEM    = UTC
MEAN_ELEMENT_THEORY = SGP/SGP4

EPOCH          = 2026-03-18T06:03:44.074080
MEAN_MOTION    = 14.83576634
ECCENTRICITY   = .00183155
INCLINATION    = 82.4986
RA_OF_ASC_NODE = 259.3427
ARG_OF_PERICENTER = 271.9027
MEAN_ANOMALY   = 88.0090

EPHEMERIS_TYPE = 0
CLASSIFICATION_TYPE = U
NORAD_CAT_ID   = 20466
ELEMENT_SET_NO = 999
REV_AT_EPOCH   = 92975
BSTAR          = .50812745E-4
MEAN_MOTION_DOT = .443E-5
MEAN_MOTION_DDOT = 0

CCSDS_OMM_VERS = 2.0
CREATION_DATE  = 
ORIGINATOR     = 

OBJECT_NAME    = SL-14 R/B
OBJECT_ID      = 1990-018B
CENTER_NAME    = EARTH
REF_FRAME      = TEME
TIME_SYSTEM    = UTC
MEAN_ELEMENT_THEORY = SGP/SGP4

EPOCH          = 2026-03-17T20:57:58.385952
MEAN_MOTION    = 14.82153577
ECCENTRICITY   = .00175201
INCLINATION    = 82.5218
RA_OF_ASC_NODE = 215.4407
ARG_OF_PERICENTER = 67.2365
MEAN_ANOMALY   = 293.0698

EPHEMERIS_TYPE = 0
CLASSIFICATION_TYPE = U
NORAD_CAT_ID   = 20511
ELEMENT_SET_NO = 999
REV_AT_EPOCH   = 92379
BSTAR          = .51247286E-4
MEAN_MOTION_DOT = .433E-5
MEAN_MOTION_DDOT = 0

CCSDS_OMM_VERS = 2.0
CREATION_DATE  = 
ORIGINATOR     = 

OBJECT_NAME    = HST
OBJECT_ID      = 1990-037B
CENTER_NAME    = EARTH
REF_FRAME      = TEME
TIME_SYSTEM    = UTC
MEAN_ELEMENT_THEORY = SGP/SGP4

EPOCH          = 2026-03-18T00:48:03.043584
MEAN_MOTION    = 15.29615021
ECCENTRICITY   = .00016384
INCLINATION    = 28.4724
RA_OF_ASC_NODE = 343.0766
ARG_OF_PERICENTER = 212.8737
MEAN_ANOMALY   = 147.1757

EPHEMERIS_TYPE = 0
CLASSIFICATION_TYPE = U
NORAD_CAT_ID   = 20580
ELEMENT_SET_NO = 999
REV_AT_EPOCH   = 77459
BSTAR          = .19323683E-3
MEAN_MOTION_DOT = .5936E-4
MEAN_MOTION_DDOT = 0

CCSDS_OMM_VERS = 2.0
CREATION_DATE  = 
ORIGINATOR     = 

OBJECT_NAME    = SL-16 R/B
OBJECT_ID      = 1990-046B
CENTER_NAME    = EARTH
REF_FRAME      = TEME
TIME_SYSTEM    = UTC
MEAN_ELEMENT_THEORY = SGP/SGP4

EPOCH          = 2026-03-18T06:01:18.504768
MEAN_MOTION    = 14.15011169
ECCENTRICITY   = .00161379
INCLINATION    = 70.9969
RA_OF_ASC_NODE = 279.9329
ARG_OF_PERICENTER = 288.2482
MEAN_ANOMALY   = 71.6884

EPHEMERIS_TYPE = 0
CLASSIFICATION_TYPE = U
NORAD_CAT_ID   = 20625
ELEMENT_SET_NO = 999
REV_AT_EPOCH   = 84960
BSTAR          = .55862909E-4
MEAN_MOTION_DOT = .61E-6
MEAN_MOTION_DDOT = 0

CCSDS_OMM_VERS = 2.0
CREATION_DATE  = 
ORIGINATOR     = 

OBJECT_NAME    = COSMOS 2084
OBJECT_ID      = 1990-055A
CENTER_NAME    = EARTH
REF_FRAME      = TEME
TIME_SYSTEM    = UTC
MEAN_ELEMENT_THEORY = SGP/SGP4

EPOCH          = 2026-03-17T22:58:23.178144
MEAN_MOTION    = 15.05696347
ECCENTRICITY   = .00157808
INCLINATION    = 62.7906
RA_OF_ASC_NODE = 307.3804
ARG_OF_PERICENTER = 192.2663
MEAN_ANOMALY   = 167.8056

EPHEMERIS_TYPE = 0
CLASSIFICATION_TYPE = U
NORAD_CAT_ID   = 20663
ELEMENT_SET_NO = 999
REV_AT_EPOCH   = 93756
BSTAR          = .13093538E-3
MEAN_MOTION_DOT = .1703E-4
MEAN_MOTION_DDOT = 0

CCSDS_OMM_VERS = 2.0
CREATION_DATE  = 
ORIGINATOR     = 

OBJECT_NAME    = SL-6 R/B(2)
OBJECT_ID      = 1990-055D
CENTER_NAME    = EARTH
REF_FRAME      = TEME
TIME_SYSTEM    = UTC
MEAN_ELEMENT_THEORY = SGP/SGP4

EPOCH          = 2026-03-18T03:36:59.614272
MEAN_MOTION    = 15.03636285
ECCENTRICITY   = .00261666
INCLINATION    = 62.7824
RA_OF_ASC_NODE = 225.0754
ARG_OF_PERICENTER = 349.0888
MEAN_ANOMALY   = 10.9640

EPHEMERIS_TYPE = 0
CLASSIFICATION_TYPE = U
NORAD_CAT_ID   = 20666
ELEMENT_SET_NO = 999
REV_AT_EPOCH   = 93946
BSTAR          = .14815364E-3
MEAN_MOTION_DOT = .1849E-4
MEAN_MOTION_DDOT = 0

CCSDS_OMM_VERS = 2.0
CREATION_DATE  = 
ORIGINATOR     = 

OBJECT_NAME    = SL-8 R/B
OBJECT_ID      = 1990-078B
CENTER_NAME    = EARTH
REF_FRAME      = TEME
TIME_SYSTEM    = UTC
MEAN_ELEMENT_THEORY = SGP/SGP4

EPOCH          = 2026-03-18T02:36:26.277408
MEAN_MOTION    = 14.89335208
ECCENTRICITY   = .03604163
INCLINATION    = 82.9000
RA_OF_ASC_NODE = 243.7363
ARG_OF_PERICENTER = 345.6606
MEAN_ANOMALY   = 13.4582

EPHEMERIS_TYPE = 0
CLASSIFICATION_TYPE = U
NORAD_CAT_ID   = 20775
ELEMENT_SET_NO = 999
REV_AT_EPOCH   = 81055
BSTAR          = .30499699E-3
MEAN_MOTION_DOT = .10339E-3
MEAN_MOTION_DDOT = 0

CCSDS_OMM_VERS = 2.0
CREATION_DATE  = 
ORIGINATOR     = 

OBJECT_NAME    = SL-8 R/B
OBJECT_ID      = 1991-006B
CENTER_NAME    = EARTH
REF_FRAME      = TEME
TIME_SYSTEM    = UTC
MEAN_ELEMENT_THEORY = SGP/SGP4

EPOCH          = 2026-03-18T00:00:13.359168
MEAN_MOTION    = 13.77495370
ECCENTRICITY   = .00225727
INCLINATION    = 82.9459
RA_OF_ASC_NODE = 163.8679
ARG_OF_PERICENTER = 15.6453
MEAN_ANOMALY   = 157.5489

EPHEMERIS_TYPE = 0
CLASSIFICATION_TYPE = U
NORAD_CAT_ID   = 21088
ELEMENT_SET_NO = 999
REV_AT_EPOCH   = 76521
BSTAR          = .65423846E-4
MEAN_MOTION_DOT = .8E-6
MEAN_MOTION_DDOT = 0

CCSDS_OMM_VERS = 2.0
CREATION_DATE  = 
ORIGINATOR     = 

OBJECT_NAME    = OKEAN-3
OBJECT_ID      = 1991-039A
CENTER_NAME    = EARTH
REF_FRAME      = TEME
TIME_SYSTEM    = UTC
MEAN_ELEMENT_THEORY = SGP/SGP4

EPOCH          = 2026-03-18T02:58:12.740448
MEAN_MOTION    = 15.04864744
ECCENTRICITY   = .00130797
INCLINATION    = 82.5197
RA_OF_ASC_NODE = 328.6740
ARG_OF_PERICENTER = 305.7179
MEAN_ANOMALY   = 54.2830

EPHEMERIS_TYPE = 0
CLASSIFICATION_TYPE = U
NORAD_CAT_ID   = 21397
ELEMENT_SET_NO = 999
REV_AT_EPOCH   = 86630
BSTAR          = .14739936E-3
MEAN_MOTION_DOT = .2114E-4
MEAN_MOTION_DDOT = 0

CCSDS_OMM_VERS = 2.0
CREATION_DATE  = 
ORIGINATOR     = 

OBJECT_NAME    = COSMOS 2151
OBJECT_ID      = 1991-042A
CENTER_NAME    = EARTH
REF_FRAME      = TEME
TIME_SYSTEM    = UTC
MEAN_ELEMENT_THEORY = SGP/SGP4

EPOCH          = 2026-03-18T05:18:41.928768
MEAN_MOTION    = 15.00140618
ECCENTRICITY   = .00134399
INCLINATION    = 82.4931
RA_OF_ASC_NODE = 75.4435
ARG_OF_PERICENTER = 37.5128
MEAN_ANOMALY   = 322.7031

EPHEMERIS_TYPE = 0
CLASSIFICATION_TYPE = U
NORAD_CAT_ID   = 21422
ELEMENT_SET_NO = 999
REV_AT_EPOCH   = 86447
BSTAR          = .1572562E-3
MEAN_MOTION_DOT = .1992E-4
MEAN_MOTION_DDOT = 0

CCSDS_OMM_VERS = 2.0
CREATION_DATE  = 
ORIGINATOR     = 

OBJECT_NAME    = SL-14 R/B
OBJECT_ID      = 1991-042B
CENTER_NAME    = EARTH
REF_FRAME      = TEME
TIME_SYSTEM    = UTC
MEAN_ELEMENT_THEORY = SGP/SGP4

EPOCH          = 2026-03-17T20:39:34.523136
MEAN_MOTION    = 14.81838107
ECCENTRICITY   = .00162884
INCLINATION    = 82.4938
RA_OF_ASC_NODE = 212.5205
ARG_OF_PERICENTER = 210.0281
MEAN_ANOMALY   = 150.0001

EPHEMERIS_TYPE = 0
CLASSIFICATION_TYPE = U
NORAD_CAT_ID   = 21423
ELEMENT_SET_NO = 999
REV_AT_EPOCH   = 85428
BSTAR          = .5232178E-4
MEAN_MOTION_DOT = .437E-5
MEAN_MOTION_DDOT = 0

